******** Week 380 almanac for PRN-17 ********
ID:                         17
Health:                     000
Eccentricity:               0.1261138916E-001
Time of Applicability(s):  61440.0000
Orbital Inclination(rad):   0.9574640693
Rate of Right Ascen(r/s):  -0.8137481816E-008
SQRT(A)  (m 1/2):           5153.618164
Right Ascen at Week(rad):  -0.4338135868E+000
Argument of Perigee(rad):  -1.099338792
Mean Anom(rad):             0.4969075349E+000
Af0(s):                    -0.1754760742E-003
Af1(s/s):                  -0.7275957614E-011
week:                        380

******** Week 380 almanac for PRN-18 ********
ID:                         18
Health:                     000
Eccentricity:               0.6289482117E-002
Time of Applicability(s):  61440.0000
Orbital Inclination(rad):   0.9708804091
Rate of Right Ascen(r/s):  -0.7783181344E-008
SQRT(A)  (m 1/2):           5153.575684
Right Ascen at Week(rad):   0.5778059216E+000
Argument of Perigee(rad):  -2.860459965
Mean Anom(rad):            -0.1470461400E+001
Af0(s):                    -0.3004074097E-003
Af1(s/s):                   0.7275957614E-011
week:                        380

******** Week 380 almanac for PRN-19 ********
ID:                         19
Health:                     000
Eccentricity:               0.1176786423E-001
Time of Applicability(s):  61440.0000
Orbital Inclination(rad):   0.9566311657
Rate of Right Ascen(r/s):  -0.8114623721E-008
SQRT(A)  (m 1/2):           5153.703125
Right Ascen at Week(rad):  -0.3900513170E+000
Argument of Perigee(rad):   3.028518121
Mean Anom(rad):             0.2130999295E+001
Af0(s):                     0.7038116455E-003
Af1(s/s):                   0.0000000000E+000
week:                        380

******** Week 380 almanac for PRN-20 ********
ID:                         20
Health:                     000
Eccentricity:               0.1907825470E-002
Time of Applicability(s):  61440.0000
Orbital Inclination(rad):   0.9620779959
Rate of Right Ascen(r/s):  -0.8091765626E-008
SQRT(A)  (m 1/2):           5153.559082
Right Ascen at Week(rad):   0.2630854200E+001
Argument of Perigee(rad):  -1.760399124
Mean Anom(rad):             0.3105669190E+001
Af0(s):                     0.2355575562E-003
Af1(s/s):                   0.1091393642E-010
week:                        380

******** Week 380 almanac for PRN-21 ********
ID:                         21
Health:                     000
Eccentricity:               0.7920265198E-003
Time of Applicability(s):  61440.0000
Orbital Inclination(rad):   0.9641452747
Rate of Right Ascen(r/s):  -0.7920329914E-008
SQRT(A)  (m 1/2):           5153.542480
Right Ascen at Week(rad):   0.1624807356E+001
Argument of Perigee(rad):  -0.086409258
Mean Anom(rad):             0.2824285956E+001
Af0(s):                     0.3967285156E-003
Af1(s/s):                  -0.3637978807E-011
week:                        380

******** Week 380 almanac for PRN-22 ********
ID:                         22
Health:                     000
Eccentricity:               0.1184988022E-001
Time of Applicability(s):  61440.0000
Orbital Inclination(rad):   0.9568169212
Rate of Right Ascen(r/s):  -0.7920329914E-008
SQRT(A)  (m 1/2):           5153.668457
Right Ascen at Week(rad):  -0.1446046163E+001
Argument of Perigee(rad):  -0.988047661
Mean Anom(rad):             0.1109909627E+001
Af0(s):                     0.3910064697E-004
Af1(s/s):                   0.7275957614E-011
week:                        380

******** Week 380 almanac for PRN-23 ********
ID:                         23
Health:                     000
Eccentricity:               0.6438732147E-002
Time of Applicability(s):  61440.0000
Orbital Inclination(rad):   0.9891623442
Rate of Right Ascen(r/s):  -0.7668890869E-008
SQRT(A)  (m 1/2):           5153.686035
Right Ascen at Week(rad):   0.1587431180E+001
Argument of Perigee(rad):  -2.742407110
Mean Anom(rad):            -0.2689396389E+001
Af0(s):                     0.6704330444E-003
Af1(s/s):                   0.3637978807E-011
week:                        380

******** Week 380 almanac for PRN-24 ********
ID:                         24
Health:                     000
Eccentricity:               0.1842260361E-001
Time of Applicability(s):  61440.0000
Orbital Inclination(rad):   0.9355269456
Rate of Right Ascen(r/s):  -0.8057478483E-008
SQRT(A)  (m 1/2):           5153.575195
Right Ascen at Week(rad):  -0.2695973107E+001
Argument of Perigee(rad):   1.161412957
Mean Anom(rad):            -0.1280108840E+001
Af0(s):                     0.1192092896E-003
Af1(s/s):                   0.1818989404E-010
week:                        380

******** Week 380 almanac for PRN-25 ********
ID:                         25
Health:                     000
Eccentricity:               0.1289987564E-001
Time of Applicability(s):  61440.0000
Orbital Inclination(rad):   0.9466962432
Rate of Right Ascen(r/s):  -0.8000333246E-008
SQRT(A)  (m 1/2):           5153.613281
Right Ascen at Week(rad):  -0.1561608920E+001
Argument of Perigee(rad):   1.161728666
Mean Anom(rad):            -0.3095830142E+001
Af0(s):                     0.4053115845E-003
Af1(s/s):                  -0.3637978807E-011
week:                        380

******** Week 380 almanac for PRN-26 ********
ID:                         26
Health:                     000
Eccentricity:               0.1120281219E-001
Time of Applicability(s):  61440.0000
Orbital Inclination(rad):   0.9274675544
Rate of Right Ascen(r/s):  -0.8148910863E-008
SQRT(A)  (m 1/2):           5153.731934
Right Ascen at Week(rad):  -0.1638780588E+001
Argument of Perigee(rad):   0.721153355
Mean Anom(rad):             0.2305722552E+001
Af0(s):                    -0.3833770752E-003
Af1(s/s):                  -0.3637978807E-011
week:                        380

******** Week 380 almanac for PRN-27 ********
ID:                         27
Health:                     000
Eccentricity:               0.1432847977E-001
Time of Applicability(s):  61440.0000
Orbital Inclination(rad):   0.9509146904
Rate of Right Ascen(r/s):  -0.8217485148E-008
SQRT(A)  (m 1/2):           5153.615723
Right Ascen at Week(rad):  -0.5073705122E+000
Argument of Perigee(rad):   0.900689403
Mean Anom(rad):             0.6348807927E+000
Af0(s):                     0.9536743164E-006
Af1(s/s):                   0.0000000000E+000
week:                        380

******** Week 380 almanac for PRN-28 ********
ID:                         28
Health:                     000
Eccentricity:               0.5173683167E-003
Time of Applicability(s):  61440.0000
Orbital Inclination(rad):   0.9622637514
Rate of Right Ascen(r/s):  -0.7771752296E-008
SQRT(A)  (m 1/2):           5153.573730
Right Ascen at Week(rad):  -0.2609173613E+001
Argument of Perigee(rad):  -0.317879693
Mean Anom(rad):            -0.1577360686E+001
Af0(s):                    -0.4673004150E-003
Af1(s/s):                   0.1091393642E-010
week:                        380

******** Week 380 almanac for PRN-29 ********
ID:                         29
Health:                     000
Eccentricity:               0.3662586212E-002
Time of Applicability(s):  61440.0000
Orbital Inclination(rad):   0.9601605199
Rate of Right Ascen(r/s):  -0.8126052768E-008
SQRT(A)  (m 1/2):           5153.631836
Right Ascen at Week(rad):  -0.4167102253E+000
Argument of Perigee(rad):   2.868410749
Mean Anom(rad):             0.3364526201E+000
Af0(s):                    -0.2784729004E-003
Af1(s/s):                   0.7275957614E-011
week:                        380

******** Week 380 almanac for PRN-30 ********
ID:                         30
Health:                     000
Eccentricity:               0.8218288422E-002
Time of Applicability(s):  61440.0000
Orbital Inclination(rad):   0.9366474707
Rate of Right Ascen(r/s):  -0.8023191341E-008
SQRT(A)  (m 1/2):           5153.628906
Right Ascen at Week(rad):  -0.2596059875E+001
Argument of Perigee(rad):  -2.258997558
Mean Anom(rad):            -0.2547164238E+001
Af0(s):                     0.3004074097E-003
Af1(s/s):                   0.1455191523E-010
week:                        380

******** Week 380 almanac for PRN-31 ********
ID:                         31
Health:                     000
Eccentricity:               0.1091051102E-001
Time of Applicability(s):  61440.0000
Orbital Inclination(rad):   0.9550372638
Rate of Right Ascen(r/s):  -0.7817468486E-008
SQRT(A)  (m 1/2):           5153.584473
Right Ascen at Week(rad):  -0.2560195959E+001
Argument of Perigee(rad):   0.975937228
Mean Anom(rad):             0.2944134946E+001
Af0(s):                    -0.1344680786E-003
Af1(s/s):                   0.3637978807E-011
week:                        380

******** Week 380 almanac for PRN-32 ********
ID:                         32
Health:                     000
Eccentricity:               0.9456634521E-002
Time of Applicability(s):  61440.0000
Orbital Inclination(rad):   0.9696819866
Rate of Right Ascen(r/s):  -0.8011762293E-008
SQRT(A)  (m 1/2):           5153.520020
Right Ascen at Week(rad):   0.2643419659E+001
Argument of Perigee(rad):  -1.972283590
Mean Anom(rad):             0.1138701353E+001
Af0(s):                     0.1726150513E-003
Af1(s/s):                   0.2182787284E-010
week:                        380

